{
"type": "FeatureCollection",
"name": "2nd_floor_room1",
"crs": {"type":"name","properties":{"name":"urn:ogc:def:crs:OGC:1.3:CRS84"}},
"height_offset": -1.35,
"features": [
{"type":"Feature","properties":{"room_id":"13","room_name":"UG's Cabin","floor":"2nd","type":null,"height":3,"Latitude":"28°40′15.729″","Longitude":"77°8′1.318″"},"geometry":{"type":"MultiPolygon","coordinates":[[[[77.1337077635,28.6710135286],[77.13367931979,28.67099664045871],[77.13366204927718,28.671020026887994],[77.13366991367789,28.671025113267977],[77.1336624741,28.6710377309],[77.1336856061,28.6710518608],[77.1337077635,28.6710135286]]]]}},
{"type":"Feature","properties":{"room_id":"15","room_name":"Manthan","floor":"2nd","type":null,"height":3,"Latitude":"28°40′15.372″","Longitude":"77°8′1.516″"},"geometry":{"type":"MultiPolygon","coordinates":[[[[77.13372642842836,28.67091128830496],[77.13371821485424,28.670922871896263],[77.13371497492022,28.670927415140866],[77.13371497492022,28.670927415140866],[77.13371497492022,28.670927415140866],[77.1337067784,28.6709384841],[77.13370296237548,28.67094501400759],[77.13371163769357,28.670950928725492],[77.13371163769357,28.670950928725492],[77.13373767914938,28.67096803171355],[77.1337607285145,28.67093293012855],[77.13372642842836,28.67091128830496]]]]}},
{"type":"Feature","properties":{"room_id":null,"room_name":null,"floor":"2nd","type":null,"height":3,"Latitude":"28°40′15.227″","Longitude":"77°8′1.410″"},"geometry":{"type":"MultiPolygon","coordinates":[[[[77.1336922883,28.670890641],[77.13368561885335,28.670901933784695],[77.13371821485424,28.670922871896263],[77.13372642842836,28.67091128830496],[77.1336922883,28.670890641]]]]}},
{"type":"Feature","properties":{"room_id":null,"room_name":"Women Washroom","floor":"2nd","type":"Washroom","height":3,"Latitude":"28°40′15.714″","Longitude":"77°8′1.189″"},"geometry":{"type":"MultiPolygon","coordinates":[[[[77.13364930795052,28.671011816070873],[77.1336410159,28.671025784],[77.1336624741,28.6710377309],[77.13366991367789,28.671025113267977],[77.13364930795052,28.671011816070873]]]]}},
{"type":"Feature","properties":{"room_id":"11","room_name":"VG's Cabin","floor":"2nd","type":null,"height":3,"Latitude":"28°40′15.487″","Longitude":"77°8′1.076″"},"geometry":{"type":"MultiPolygon","coordinates":[[[[77.1336145198,28.6709905886],[77.13363597578333,28.67095832259914],[77.1336118863,28.6709433227],[77.1335896238,28.6709769701],[77.1336145198,28.6709905886]]]]}},
{"type":"Feature","properties":{"room_id":"14","room_name":"Eureka","floor":"2nd","type":null,"height":3,"Latitude":"28°40′15.548″","Longitude":"77°8′1.427″"},"geometry":{"type":"MultiPolygon","coordinates":[[[[77.13367931979,28.67099664045871],[77.1337077635,28.6710135286],[77.13373767914938,28.67096803171355],[77.13371163769357,28.670950928725492],[77.13371163769357,28.670950928725492],[77.13367931979,28.67099664045871]]]]}},
{"type":"Feature","properties":{"room_id":null,"room_name":"Employee sitting places","floor":"2nd","type":"Office","height":3,"Latitude":"28°40′15.461″","Longitude":"77°8′1.234″"},"geometry":{"type":"MultiPolygon","coordinates":[[[[77.13370296237548,28.67094501400759],[77.1336957228,28.670956089],[77.1336578699,28.6709346397],[77.13368170541891,28.670899555915625],[77.1336884443,28.6708876451],[77.1336802506,28.670882174],[77.13366361765443,28.67090690776745],[77.13365751588016,28.670916471133193],[77.1336433979,28.6709384053],[77.1336226766,28.6709264853],[77.1336118863,28.6709433227],[77.13363597578333,28.67095832259914],[77.1336145198,28.6709905886],[77.13364930795052,28.671011816070873],[77.13366206483025,28.67102004333486],[77.13367931979,28.67099664045871],[77.13371163769357,28.670950928725492],[77.13370296237548,28.67094501400759]]]]}},
{"type":"Feature","properties":{"room_id":"19","room_name":"Director","floor":"2nd","type":null,"height":3,"Latitude":"28°40′15.384″","Longitude":"77°8′1.359″"},"geometry":{"type":"MultiPolygon","coordinates":[[[[77.1336882898141,28.670926975749893],[77.1336769075,28.6709452209],[77.1336957228,28.670956089],[77.13370296237548,28.67094501400759],[77.1337067772,28.6709385282],[77.1336882898141,28.670926975749893]]]]}},
{"type":"Feature","properties":{"room_id":null,"room_name":"Stairs","floor":"2nd","type":null,"height":3,"Latitude":"28°40′15.289″","Longitude":"77°8′1.372″"},"geometry":{"type":"MultiPolygon","coordinates":[[[[77.13367087737952,28.6709152169177],[77.1336884215,28.6709277329],[77.1337067772,28.6709385282],[77.13371821485424,28.670922871896263],[77.13368561885335,28.670901933784695],[77.13368170541891,28.670899555915625],[77.13367087737952,28.6709152169177]]]]}},
{"type":"Feature","properties":{"room_id":"18","room_name":"Dojo","floor":"2nd","type":null,"height":3,"Latitude":"28°40′15.340″","Longitude":"77°8′1.294″"},"geometry":{"type":"MultiPolygon","coordinates":[[[[77.1336769075,28.6709452209],[77.1336882898141,28.670926975749893],[77.13367087737952,28.6709152169177],[77.1336578699,28.6709346397],[77.1336769075,28.6709452209]]]]}},
{"type":"Feature","properties":{"room_id":"12","room_name":"Pantry","floor":"2nd","type":null,"height":3,"Latitude":"28°40′15.600″","Longitude":"77°8′1.028″"},"geometry":{"type":"MultiPolygon","coordinates":[[[[77.1336174564,28.671009813],[77.1336266421,28.6709968077],[77.1336145198,28.6709905886],[77.1335896238,28.6709769701],[77.1335808757,28.6709900336],[77.1336174564,28.671009813]]]]}},
{"type":"Feature","properties":{"room_id":null,"room_name":"Men Washroom","floor":"2nd","type":"Washroom","height":3,"Latitude":"28°40′15.660″","Longitude":"77°8′1.112″"},"geometry":{"type":"MultiPolygon","coordinates":[[[[77.1336410159,28.671025784],[77.13364930795052,28.671011816070873],[77.1336266421,28.6709968077],[77.1336174564,28.671009813],[77.1336410159,28.671025784]]]]}},
{"type":"Feature","properties":{"room_id":null,"room_name":"Entrance","floor":"2nd","type":null,"height":3,"Latitude":"28°40′15.179″","Longitude":"77°8′1.340″"},"geometry":{"type":"MultiPolygon","coordinates":[[[[77.13368561885335,28.670901933784695],[77.1336922883,28.670890641],[77.1336884443,28.6708876451],[77.13368170541891,28.670899555915625],[77.13368561885335,28.670901933784695]]]]}},
{"type":"Feature","properties":{"room_id":null,"room_name":null,"floor":"2nd","type":null,"height":3,"Latitude":"28°40′15.300″","Longitude":"77°8′1.159″"},"geometry":{"type":"MultiPolygon","coordinates":[[[[77.13365751588016,28.670916471133193],[77.1336374124,28.6709048016],[77.1336226766,28.6709264853],[77.1336433979,28.6709384053],[77.13365751588016,28.670916471133193]]]]}},
{"type":"Feature","properties":{"room_id":null,"room_name":"Admin","floor":"2nd","type":null,"height":3,"Latitude":"28°40′15.150″","Longitude":"77°8′1.234″"},"geometry":{"type":"MultiPolygon","coordinates":[[[[77.1336421004,28.6708957861],[77.13366361765443,28.67090690776745],[77.1336802506,28.670882174],[77.1336584291,28.6708691017],[77.1336421004,28.6708957861]]]]}},
{"type":"Feature","properties":{"room_id":null,"room_name":null,"floor":"2nd","type":null,"height":3,"Latitude":"28°40′15.234″","Longitude":"77°8′1.192″"},"geometry":{"type":"MultiPolygon","coordinates":[[[[77.1336374124,28.6709048016],[77.13365751588016,28.670916471133193],[77.13366361765443,28.67090690776745],[77.1336421004,28.6708957861],[77.1336374124,28.6709048016]]]]}}
]
}
