{
"type": "FeatureCollection",
"name": "3rd_floor_room1",
"crs": {"type":"name","properties":{"name":"urn:ogc:def:crs:OGC:1.3:CRS84"}},
"height_offset": -2.3,
"features": [
{"type":"Feature","properties":{"id":null,"room_id":"22","room_name":"Meeting Room","floor":"3rd","type":null,"height":3,"Longitude":"77°8′1.295″"},"geometry":{"type":"MultiPolygon","coordinates":[[[[77.1336502185,28.6710316794],[77.13367706,28.6710491283],[77.1336945093,28.67102603],[77.1336680803,28.6710084257],[77.1336589116,28.6710192879],[77.1336502185,28.6710316794]]]]}},
{"type":"Feature","properties":{"id":null,"room_id":"20","room_name":"Conference Room","floor":"3rd","type":null,"height":3,"Longitude":"77°8′1.077″"},"geometry":{"type":"MultiPolygon","coordinates":[[[[77.13361037705491,28.670947960530235],[77.133579673,28.6709852543],[77.13361751295297,28.671010106072586],[77.13362537147358,28.670998453783398],[77.1336438660954,28.670969774699522],[77.13361037705491,28.670947960530235]]]]}},
{"type":"Feature","properties":{"id":null,"room_id":null,"room_name":"Women Washroom","floor":"3rd","type":"Washroom","height":3,"Longitude":"77°8′1.123″"},"geometry":{"type":"MultiPolygon","coordinates":[[[[77.13362537147358,28.670998453783398],[77.13361751295297,28.671010106072586],[77.13363540751548,28.671021406501094],[77.13364345142377,28.67100938388548],[77.13362537147358,28.670998453783398]]]]}},
{"type":"Feature","properties":{"id":null,"room_id":null,"room_name":"Men Washroom","floor":"3rd","type":"Washroom","height":3,"Longitude":"77°8′1.190″"},"geometry":{"type":"MultiPolygon","coordinates":[[[[77.13363540751548,28.671021406501094],[77.1336502185,28.6710316794],[77.1336589116,28.6710192879],[77.13364345142377,28.67100938388548],[77.13363540751548,28.671021406501094]]]]}},
{"type":"Feature","properties":{"id":null,"room_id":null,"room_name":"Library","floor":"3rd","type":null,"height":3,"Longitude":"77°8′1.212″"},"geometry":{"type":"MultiPolygon","coordinates":[[[[77.13364305314497,28.670900177111758],[77.1336617434976,28.670911689837524],[77.13366757060014,28.670900891038976],[77.13364985031365,28.67088974424818],[77.13364305314497,28.670900177111758]]]]}},
{"type":"Feature","properties":{"id":null,"room_id":null,"room_name":"Employee sitting places","floor":"3rd","type":null,"height":3,"Longitude":"77°8′1.285″"},"geometry":{"type":"MultiPolygon","coordinates":[[[[77.1337432302,28.6709707385],[77.1337099218,28.6709488178],[77.1336745021,28.6709279297],[77.13368769291937,28.670909829708698],[77.1337008832,28.6708928551],[77.13366285752019,28.670868697865377],[77.13364985031365,28.67088974424818],[77.13366757060014,28.670900891038976],[77.1336617434976,28.670911689837524],[77.13364305314497,28.670900177111758],[77.13364305314497,28.670900177111758],[77.13361037705491,28.670947960530235],[77.1336438660954,28.670969774699522],[77.13362537147358,28.670998453783398],[77.13364345142377,28.67100938388548],[77.1336589116,28.6710192879],[77.1336680803,28.6710084257],[77.1336945093,28.67102603],[77.1337432302,28.6709707385]]]]}},
{"type":"Feature","properties":{"id":null,"room_id":null,"room_name":"Stairs","floor":"3rd","type":null,"height":3,"Longitude":"77°8′1.369″"},"geometry":{"type":"MultiPolygon","coordinates":[[[[77.13372194980566,28.670933139744015],[77.13372194980566,28.670933139744015],[77.13368769291937,28.670909829708698],[77.13368769291937,28.670909829708698],[77.1336745021,28.6709279297],[77.1337099218,28.6709488178],[77.13372194980566,28.670933139744015],[77.13372194980566,28.670933139744015]]]]}},
{"type":"Feature","properties":{"id":null,"room_id":"27","room_name":"Pantry","floor":"3rd","type":null,"height":3,"Longitude":"77°8′1.524″"},"geometry":{"type":"MultiPolygon","coordinates":[[[[77.1337347565526,28.67091416919703],[77.1337099218,28.6709488178],[77.1337432302,28.6709707385],[77.1337667224,28.6709361521],[77.1337347565526,28.67091416919703]]]]}},
{"type":"Feature","properties":{"id":null,"room_id":null,"room_name":null,"floor":"3rd","type":null,"height":3,"Longitude":"77°8′1.426″"},"geometry":{"type":"MultiPolygon","coordinates":[[[[77.1337068531,28.6708949908],[77.133693422,28.6709146568],[77.13372194980566,28.670933139744015],[77.1337347565526,28.67091416919703],[77.1337068531,28.6708949908]]]]}},
{"type":"Feature","properties":{"id":null,"room_id":null,"room_name":"Entrance","floor":"3rd","type":null,"height":3,"Longitude":"77°8′1.358″"},"geometry":{"type":"MultiPolygon","coordinates":[[[[77.133693444,28.6709146568],[77.1337068531,28.6708949908],[77.1337008832,28.6708928551],[77.13368769291937,28.670909829708698],[77.133693444,28.6709146568]]]]}}
]
}
